IRIDIUM 159             
1 43578U 18061K   25267.45794469  .00000181  00000+0  57393-4 0  9993
2 43578  86.4039 167.7721 0001947  84.6378 275.5040 14.34221806375297
IRIDIUM 180             
1 43922U 19002A   25268.08535767  .00000084  00000+0  22948-4 0  9996
2 43922  86.3918 104.4424 0002079  91.2010 268.9424 14.34218280350991
IRIDIUM 176             
1 43923U 19002B   25268.08493777  .00000587  00000+0  89123-4 0  9997
2 43923  86.6043 104.4247 0002996  88.0076 272.1484 14.72254314360243
IRIDIUM 168             
1 43924U 19002C   25268.28832056  .00000081  00000+0  21905-4 0  9990
2 43924  86.3921 104.4274 0002109  89.2462 270.8976 14.34218252351008
IRIDIUM 173             
1 43925U 19002D   25268.27563526  .00000093  00000+0  26009-4 0  9996
2 43925  86.3917 104.3323 0002211  92.0424 268.1025 14.34218116350982
IRIDIUM 169             
1 43926U 19002E   25267.34052941  .00000473  00000+0  14815-3 0  9991
2 43926  86.4238 136.3550 0003360  92.6363 267.5220 14.38612168352005
IRIDIUM 172             
1 43927U 19002F   25268.26929157 -.00000029  00000+0 -17252-4 0  9994
2 43927  86.3917 104.3419 0001931  94.3074 265.8342 14.34217616350995
IRIDIUM 175             
1 43928U 19002G   25268.14803262  .00001253  00000+0  19475-3 0  9996
2 43928  86.1490  51.2080 0002481  72.3819 287.7668 14.72249087360240
